COSMOS 2251 DEB         
1 36442U 93036BAR 17341.06761304  .00001331  00000-0  39247-3 0  9999
2 36442  73.9898 208.7256 0038834 307.1548  52.6064 14.44157442433907
